DUBAISAT-1              
1 35682U 09041B   26189.32020649  .00000654  00000+0  10430-3 0  9995
2 35682  98.0076 322.3495 0010459  10.8376 349.3057 14.75159360908210
OCEANSAT-2              
1 35931U 09051A   26189.57387141 -.00000183  00000+0 -99251-4 0  9991
2 35931  98.2318 174.2903 0016897 172.7144 187.4271 13.99657246882322
WORLDVIEW-2 (WV-2)      
1 35946U 09055A   26189.52667572  .00000059  00000+0  34062-4 0  9994
2 35946  98.4759 262.6854 0005017 146.2289 213.9218 14.37905728878712
SMOS                    
1 36036U 09059A   26189.52465186  .00000182  00000+0  71918-4 0  9994
2 36036  98.4429  16.5471 0001129  94.5998 265.5320 14.39733311876523
YAOGAN-7                
1 36110U 09069A   26188.12767835  .00000396  00000+0  61972-4 0  9995
2 36110  98.0047  73.8694 0024056 338.2842  21.7346 14.78030223892579
TANDEM-X                
1 36605U 10030A   26188.47915494  .00000386  00000+0  21566-4 0  9992
2 36605  97.4457 195.8973 0001887  94.3019 265.8431 15.19154052889726
CARTOSAT-2B             
1 36795U 10035A   26189.58825699  .00000954  00000+0  13727-3 0  9997
2 36795  97.9940 240.0005 0012408 118.0406 242.2062 14.78614640863013
YAOGAN-10               
1 36834U 10038A   26189.57772566  .00001775  00000+0  21226-3 0  9992
2 36834  97.8973 212.8114 0001698  84.8676  13.1326 14.85417898860387
COSMO-SKYMED 4          
1 37216U 10060A   26189.57452172 -.00000301  00000+0 -31219-4 0  9990
2 37216  97.8899  12.8648 0001486  87.3609 272.7775 14.82161454847734
RESOURCESAT-2           
1 37387U 11015A   26189.48539493  .00000028  00000+0  33128-4 0  9997
2 37387  98.7634 256.7791 0011190 190.1121 169.9832 14.21604975789204
HAIYANG-2A              
1 37781U 11043A   26189.59190906  .00000014  00000+0  62021-4 0  9999
2 37781  99.3406 191.7834 0003451  49.2645 310.8803 13.73606062749596
RASAT                   
1 37791U 11044D   26189.58717300  .00000696  00000+0  12907-3 0  9996
2 37791  98.0575 280.6585 0021707 122.4152 350.8826 14.68189831796329
SRMSAT                  
1 37841U 11058D   26189.35312844  .00000357  00000+0  50022-4 0  9991
2 37841  19.9723 291.3610 0011878  76.6616 325.6645 14.11579975760817
PLEIADES 1A             
1 38012U 11076F   26189.54148603  .00000405  00000+0  96930-4 0  9995
2 38012  98.1966 264.3575 0001754  83.1109  41.3789 14.58545505775100
ZIYUAN 1-02C (ZY 1-02C) 
1 38038U 11079A   26189.58728517  .00000589  00000+0  20801-3 0  9994
2 38038  98.4058 256.4484 0005270 237.9594 258.6583 14.38233550762280
ARIRANG-3 (KOMPSAT-3)   
1 38338U 12025B   26189.51977552  .00000298  00000+0  68442-4 0  9998
2 38338  98.1181 146.6129 0006565  56.1164 304.0661 14.62225170754465
EXACTVIEW-1 (ADS-1B)    
1 38709U 12039C   26188.88417813  .00000079  00000+0  53734-4 0  9998
2 38709  98.9798 306.7440 0011919 110.5907 249.6551 14.24990725725657
SPOT 6                  
1 38755U 12047A   26189.60172866  .00000438  00000+0  10403-3 0  9999
2 38755  98.2106 256.6596 0001150  79.2989 280.8340 14.58537590736172
PLEIADES 1B             
1 39019U 12068A   26189.55169985  .00000672  00000+0  15443-3 0  9997
2 39019  98.1936 264.3093 0001633  81.5599 278.5786 14.58533406723966
GOKTURK 2               
1 39030U 12073A   26189.57736903  .00000367  00000+0  60815-4 0  9993
2 39030  97.6818  25.9358 0000905  79.3490 280.7822 14.75564469727662
LANDSAT 8               
1 39084U 13008A   26189.51844378  .00000240  00000+0  63467-4 0  9997
2 39084  98.2293 259.3995 0001353  94.2811 265.8542 14.57108942701009
SARAL                   
1 39086U 13009A   26189.54858661  .00000067  00000+0  40566-4 0  9995
2 39086  98.5554  15.8456 0001296 185.2813 174.8357 14.32894623698661
GAOFEN-1                
1 39150U 13018A   26189.61310230  .00000312  00000+0  51921-4 0  9990
2 39150  97.9082 261.2454 0016480 192.5628 167.5174 14.76513967711404
VNREDSAT 1              
1 39160U 13021B   26189.60558237  .00000761  00000+0  15081-3 0  9999
2 39160  97.9066 242.1992 0001658  80.7820 279.3571 14.64881460703424
ARIRANG-5 (KOMPSAT-5)   
1 39227U 13042A   26189.58171851  .00000939  00000+0  71360-4 0  9996
2 39227  97.6221  15.9813 0005426  73.9717 286.2106 15.04516542707079
SKYSAT-A                
1 39418U 13066C   26189.42037418  .00002119  00000+0  12281-3 0  9995
2 39418  97.3804 238.1409 0019973 238.1447 121.7841 15.13090973691696
DUBAISAT-2              
1 39419U 13066D   26189.53760902  .00001006  00000+0  65120-4 0  9994
2 39419  97.4575 179.1253 0009935 329.1115  30.9529 15.10339869689614
GPM-CORE                
1 39574U 14009C   26189.57318549  .00004026  00000+0  90250-4 0  9991
2 39574  64.9703 236.4797 0011083 259.9046 100.0845 15.44991666701114
SENTINEL-1A             
1 39634U 14016A   26189.62462065  .00000080  00000+0  26652-4 0  9996
2 39634  98.1787 196.8451 0001419  90.4075 269.7287 14.59200126653141
KAZEOSAT 1              
1 39731U 14024A   26189.53103339  .00000354  00000+0  12092-3 0  9995
2 39731  98.3194 261.4472 0001285  81.3703 278.7632 14.42036712641638
