OBJECT_NAME,OBJECT_ID,EPOCH,MEAN_MOTION,ECCENTRICITY,INCLINATION,RA_OF_ASC_NODE,ARG_OF_PERICENTER,MEAN_ANOMALY,EPHEMERIS_TYPE,CLASSIFICATION_TYPE,NORAD_CAT_ID,ELEMENT_SET_NO,REV_AT_EPOCH,BSTAR,MEAN_MOTION_DOT,MEAN_MOTION_DDOT
DUBAISAT-1,2009-041B,2026-07-08T07:41:05.840736,14.75159360,.00104594,98.0076,322.3495,10.8376,349.3057,0,U,35682,999,90821,.10430238E-3,.654E-5,0
OCEANSAT-2,2009-051A,2026-07-08T13:46:22.489824,13.99657246,.00168972,98.2318,174.2903,172.7144,187.4271,0,U,35931,999,88232,-.99250974E-4,-.183E-5,0
WORLDVIEW-2 (WV-2),2009-055A,2026-07-08T12:38:24.782208,14.37905728,.00050178,98.4759,262.6854,146.2289,213.9218,0,U,35946,999,87871,.34062399E-4,.59E-6,0
SMOS,2009-059A,2026-07-08T12:35:29.920704,14.39733311,.00011298,98.4429,16.5471,94.5998,265.5320,0,U,36036,999,87652,.71917764E-4,.182E-5,0
YAOGAN-7,2009-069A,2026-07-07T03:03:51.409440,14.78030223,.00240564,98.0047,73.8694,338.2842,21.7346,0,U,36110,999,89257,.61972214E-4,.396E-5,0
TANDEM-X,2010-030A,2026-07-07T11:29:58.986816,15.19154052,.0001887,97.4457,195.8973,94.3019,265.8431,0,U,36605,999,88972,.21566E-4,.386E-5,0
CARTOSAT-2B,2010-035A,2026-07-08T14:07:05.403936,14.78614640,.00124084,97.9940,240.0005,118.0406,242.2062,0,U,36795,999,86301,.13726946E-3,.954E-5,0
YAOGAN-10,2010-038A,2026-07-08T13:51:55.497024,14.85417898,.00016985,97.8973,212.8114,84.8676,13.1326,0,U,36834,999,86038,.21225554E-3,.1775E-4,0
COSMO-SKYMED 4,2010-060A,2026-07-08T13:47:18.676608,14.82161454,.00014867,97.8899,12.8648,87.3609,272.7775,0,U,37216,999,84773,-.31218901E-4,-.301E-5,0
RESOURCESAT-2,2011-015A,2026-07-08T11:38:58.121952,14.21604975,.00111901,98.7634,256.7791,190.1121,169.9832,0,U,37387,999,78920,.33128458E-4,.28E-6,0
HAIYANG-2A,2011-043A,2026-07-08T14:12:20.942784,13.73606062,.0003451,99.3406,191.7834,49.2645,310.8803,0,U,37781,999,74959,.62021E-4,.14E-6,0
RASAT,2011-044D,2026-07-08T14:05:31.747200,14.68189831,.00217073,98.0575,280.6585,122.4152,350.8826,0,U,37791,999,79632,.12906852E-3,.696E-5,0
SRMSAT,2011-058D,2026-07-08T08:28:30.297216,14.11579975,.00118782,19.9723,291.3610,76.6616,325.6645,0,U,37841,999,76081,.50022429E-4,.357E-5,0
PLEIADES 1A,2011-076F,2026-07-08T12:59:44.392992,14.58545505,.00017547,98.1966,264.3575,83.1109,41.3789,0,U,38012,999,77510,.96930006E-4,.405E-5,0
ZIYUAN 1-02C (ZY 1-02C),2011-079A,2026-07-08T14:05:41.438688,14.38233550,.00052701,98.4058,256.4484,237.9594,258.6583,0,U,38038,999,76228,.20800603E-3,.589E-5,0
ARIRANG-3 (KOMPSAT-3),2012-025B,2026-07-08T12:28:28.604928,14.62225170,.00065653,98.1181,146.6129,56.1164,304.0661,0,U,38338,999,75446,.68441716E-4,.298E-5,0
EXACTVIEW-1 (ADS-1B),2012-039C,2026-07-07T21:13:12.990432,14.24990725,.00119193,98.9798,306.7440,110.5907,249.6551,0,U,38709,999,72565,.53734304E-4,.79E-6,0
SPOT 6,2012-047A,2026-07-08T14:26:29.356224,14.58537590,.00011501,98.2106,256.6596,79.2989,280.8340,0,U,38755,999,73617,.10403388E-3,.438E-5,0
PLEIADES 1B,2012-068A,2026-07-08T13:14:26.867040,14.58533406,.00016334,98.1936,264.3093,81.5599,278.5786,0,U,39019,999,72396,.15443389E-3,.672E-5,0
GOKTURK 2,2012-073A,2026-07-08T13:51:24.684192,14.75564469,.00009057,97.6818,25.9358,79.3490,280.7822,0,U,39030,999,72766,.60815146E-4,.367E-5,0
LANDSAT 8,2013-008A,2026-07-08T12:26:33.542592,14.57108942,.00013538,98.2293,259.3995,94.2811,265.8542,0,U,39084,999,70100,.63467352E-4,.24E-5,0
SARAL,2013-009A,2026-07-08T13:09:57.883104,14.32894623,.00012967,98.5554,15.8456,185.2813,174.8357,0,U,39086,999,69866,.40565539E-4,.67E-6,0
GAOFEN-1,2013-018A,2026-07-08T14:42:52.038720,14.76513967,.00164803,97.9082,261.2454,192.5628,167.5174,0,U,39150,999,71140,.51921055E-4,.312E-5,0
VNREDSAT 1,2013-021B,2026-07-08T14:32:02.316768,14.64881460,.00016582,97.9066,242.1992,80.7820,279.3571,0,U,39160,999,70342,.15080928E-3,.761E-5,0
ARIRANG-5 (KOMPSAT-5),2013-042A,2026-07-08T13:57:40.479264,15.04516542,.00054263,97.6221,15.9813,73.9717,286.2106,0,U,39227,999,70707,.71359841E-4,.939E-5,0
SKYSAT-A,2013-066C,2026-07-08T10:05:20.329152,15.13090973,.00199733,97.3804,238.1409,238.1447,121.7841,0,U,39418,999,69169,.12280577E-3,.2119E-4,0
DUBAISAT-2,2013-066D,2026-07-08T12:54:09.419328,15.10339869,.00099356,97.4575,179.1253,329.1115,30.9529,0,U,39419,999,68961,.65120199E-4,.1006E-4,0
GPM-CORE,2014-009C,2026-07-08T13:45:23.226336,15.44991666,.00110833,64.9703,236.4797,259.9046,100.0845,0,U,39574,999,70111,.90250149E-4,.4026E-4,0
SENTINEL-1A,2014-016A,2026-07-08T14:59:27.224160,14.59200126,.0001419,98.1787,196.8451,90.4075,269.7287,0,U,39634,999,65314,.26652E-4,.8E-6,0
KAZEOSAT 1,2014-024A,2026-07-08T12:44:41.284896,14.42036712,.00012853,98.3194,261.4472,81.3703,278.7632,0,U,39731,999,64163,.12091994E-3,.354E-5,0
